OBJECT_NAME,OBJECT_ID,EPOCH,MEAN_MOTION,ECCENTRICITY,INCLINATION,RA_OF_ASC_NODE,ARG_OF_PERICENTER,MEAN_ANOMALY,EPHEMERIS_TYPE,CLASSIFICATION_TYPE,NORAD_CAT_ID,ELEMENT_SET_NO,REV_AT_EPOCH,BSTAR,MEAN_MOTION_DOT,MEAN_MOTION_DDOT
STARLINK-37575,2026-127M,2026-06-20T10:00:01.998720,15.80903563,.0001087,53.1586,246.1239,87.2592,38.3579,0,U,69454,999,316,-.27001E-3,-.53734E-3,0
STARLINK-37642,2026-127N,2026-06-20T10:00:01.998720,15.75240233,.0001004,53.1593,246.1014,58.3788,77.9127,0,U,69455,999,316,-.29193E-3,-.45152E-3,0
STARLINK-37513,2026-127P,2026-06-20T10:00:01.998720,15.80907531,.0001275,53.1580,246.0295,74.4467,96.6806,0,U,69456,999,316,-.4127E-3,-.81519E-3,0
STARLINK-37563,2026-127Q,2026-06-20T10:00:01.998720,15.80874843,.0001133,53.1582,245.9990,60.8640,125.0634,0,U,69457,999,316,-.3105E-4,-.6823E-4,0
STARLINK-37565,2026-127R,2026-06-20T10:00:01.998720,15.80946735,.0001808,53.1582,246.0076,44.9785,136.6783,0,U,69458,999,316,.74107E-4,.14E-3,0
STARLINK-37498,2026-127S,2026-06-20T10:00:01.998720,15.75271953,.0001151,53.1590,246.0440,80.0040,83.8871,0,U,69459,999,316,-.54557E-3,-.83567E-3,0
STARLINK-37384,2026-127T,2026-06-20T10:00:01.998720,15.80901366,.0001059,53.1579,245.9812,75.4168,119.0377,0,U,69460,999,316,-.42018E-3,-.82945E-3,0
STARLINK-37707,2026-127U,2026-06-20T10:00:01.998720,15.80919809,.0001037,53.1588,245.9159,84.5323,141.4858,0,U,69461,999,316,-.45171E-3,-.8913E-3,0
STARLINK-37525,2026-127V,2026-06-20T10:00:01.998720,15.80891520,.0000973,53.1586,245.9139,81.8922,144.9412,0,U,69462,999,316,-.34896E-4,-.7586E-4,0
STARLINK-37526,2026-127W,2026-06-20T10:00:01.998720,15.80914357,.0001131,53.1587,245.9064,87.9196,142.4782,0,U,69463,999,316,-.37931E-3,-.75058E-3,0
STARLINK-37574,2026-127X,2026-06-20T10:00:01.998720,15.80968140,.000076,53.1589,245.8255,96.0100,173.4990,0,U,69464,999,316,-.12768E-2,-.246714E-2,0
STARLINK-37535,2026-127Y,2026-06-20T10:00:01.998720,15.80916805,.0001037,53.1589,245.8474,82.0039,176.8283,0,U,69465,999,316,-.41303E-3,-.81616E-3,0
STARLINK-37583,2026-127Z,2026-06-20T10:00:01.998720,15.80899138,.0000974,53.1590,245.7208,79.5535,240.1711,0,U,69466,999,316,-.31881E-3,-.63238E-3,0
STARLINK-37546,2026-127AA,2026-06-20T10:00:01.998720,15.80135367,.0000961,53.1593,245.6939,70.7330,261.4903,0,U,69467,999,316,-.12016E-1,-.1986596E-1,0
STARLINK-37532,2026-127AB,2026-06-20T10:00:01.998720,15.80918989,.0000923,53.1584,245.7064,66.7997,259.4385,0,U,69468,999,316,-.42147E-3,-.83261E-3,0
STARLINK-37708,2026-127AC,2026-06-20T10:00:01.998720,15.80275384,.0001029,53.1589,245.6905,69.4616,264.0278,0,U,69469,999,316,-.11905E-1,-.1981976E-1,0
STARLINK-37686,2026-127AD,2026-06-20T10:00:01.998720,15.80923507,.0001019,53.1588,245.6660,82.0539,263.4920,0,U,69470,999,316,-.51377E-3,-.101155E-2,0
STARLINK-37451,2026-127AE,2026-06-20T10:00:01.998720,15.80912422,.0000705,53.1590,245.6424,71.7631,285.2106,0,U,69471,999,316,-.41098E-3,-.81197E-3,0
TJS-25,2026-129A,2026-06-11T11:34:53.014656,1.72502163,.7751889,16.5302,30.5351,199.9639,91.9387,0,U,69474,999,7,.19774E-2,.7407E-4,0
STARLINK-37816,2026-131A,2026-06-20T10:00:01.998720,15.90573157,.0001084,97.2830,191.8491,92.3575,191.0838,0,U,69478,999,253,-.33574E-2,-.1024692E-1,.31044E-3
STARLINK-37878,2026-131B,2026-06-20T10:00:01.998720,15.90977983,.0000877,97.2831,191.8502,80.9532,204.9465,0,U,69479,999,141,-.39925E-2,-.1241834E-1,.44517E-3
STARLINK-37817,2026-131C,2026-06-20T10:00:01.998720,15.90818307,.0001023,97.2831,191.8513,112.1025,177.2739,0,U,69480,999,253,-.35846E-2,-.1107058E-1,.35923E-3
STARLINK-37727,2026-131D,2026-06-20T10:00:01.998720,15.90881927,.0001027,97.2828,191.8528,94.0153,198.5228,0,U,69481,999,253,-.33817E-2,-.1048195E-1,.3248E-3
STARLINK-37814,2026-131E,2026-06-20T10:00:01.998720,15.90982491,.0001008,97.2831,191.8540,92.5067,202.8363,0,U,69482,999,253,-.33621E-2,-.1047451E-1,.32469E-3
STARLINK-37869,2026-131F,2026-06-20T10:00:01.998720,15.91084905,.0001022,97.2832,191.8552,94.4539,204.2131,0,U,69483,999,253,-.34044E-2,-.1066024E-1,.33581E-3
STARLINK-37873,2026-131G,2026-06-20T10:00:01.998720,15.91187239,.000102,97.2833,191.8564,93.8966,207.6860,0,U,69484,999,253,-.34045E-2,-.1071592E-1,.33942E-3
STARLINK-37892,2026-131H,2026-06-20T10:00:01.998720,15.91296866,.0001024,97.2832,191.8575,93.6787,210.1613,0,U,69485,999,253,-.33885E-2,-.1072522E-1,.34034E-3
STARLINK-37893,2026-131J,2026-06-20T10:00:01.998720,15.91400170,.0000992,97.2834,191.8587,88.2123,218.6179,0,U,69486,999,261,-.33941E-2,-.1079893E-1,.34505E-3
