STARLINK-37575          
1 69454U 26127M   26171.41668980 -.00053734  00000+0 -27001-3 0  9991
2 69454  53.1586 246.1239 0001087  87.2592  38.3579 15.80903563  3169
STARLINK-37642          
1 69455U 26127N   26171.41668980 -.00045152  00000+0 -29193-3 0  9991
2 69455  53.1593 246.1014 0001004  58.3788  77.9127 15.75240233  3164
STARLINK-37513          
1 69456U 26127P   26171.41668980 -.00081519  00000+0 -41270-3 0  9999
2 69456  53.1580 246.0295 0001275  74.4467  96.6806 15.80907531  3163
STARLINK-37563          
1 69457U 26127Q   26171.41668980 -.00006823  00000+0 -31050-4 0  9991
2 69457  53.1582 245.9990 0001133  60.8640 125.0634 15.80874843  3166
STARLINK-37565          
1 69458U 26127R   26171.41668980  .00014000  00000+0  74107-4 0  9996
2 69458  53.1582 246.0076 0001808  44.9785 136.6783 15.80946735  3169
STARLINK-37498          
1 69459U 26127S   26171.41668980 -.00083567  00000+0 -54557-3 0  9999
2 69459  53.1590 246.0440 0001151  80.0040  83.8871 15.75271953  3168
STARLINK-37384          
1 69460U 26127T   26171.41668980 -.00082945  00000+0 -42018-3 0  9999
2 69460  53.1579 245.9812 0001059  75.4168 119.0377 15.80901366  3161
STARLINK-37707          
1 69461U 26127U   26171.41668980 -.00089130  00000+0 -45171-3 0  9996
2 69461  53.1588 245.9159 0001037  84.5323 141.4858 15.80919809  3160
STARLINK-37525          
1 69462U 26127V   26171.41668980 -.00007586  00000+0 -34896-4 0  9995
2 69462  53.1586 245.9139 0000973  81.8922 144.9412 15.80891520  3163
STARLINK-37526          
1 69463U 26127W   26171.41668980 -.00075058  00000+0 -37931-3 0  9997
2 69463  53.1587 245.9064 0001131  87.9196 142.4782 15.80914357  3166
STARLINK-37574          
1 69464U 26127X   26171.41668980 -.00246714  00000+0 -12768-2 0  9997
2 69464  53.1589 245.8255 0000760  96.0100 173.4990 15.80968140  3167
STARLINK-37535          
1 69465U 26127Y   26171.41668980 -.00081616  00000+0 -41303-3 0  9994
2 69465  53.1589 245.8474 0001037  82.0039 176.8283 15.80916805  3168
STARLINK-37583          
1 69466U 26127Z   26171.41668980 -.00063238  00000+0 -31881-3 0  9995
2 69466  53.1590 245.7208 0000974  79.5535 240.1711 15.80899138  3166
STARLINK-37546          
1 69467U 26127AA  26171.41668980 -.01986596  00000+0 -12016-1 0  9995
2 69467  53.1593 245.6939 0000961  70.7330 261.4903 15.80135367  3168
STARLINK-37532          
1 69468U 26127AB  26171.41668980 -.00083261  00000+0 -42147-3 0  9992
2 69468  53.1584 245.7064 0000923  66.7997 259.4385 15.80918989  3161
STARLINK-37708          
1 69469U 26127AC  26171.41668980 -.01981976  00000+0 -11905-1 0  9990
2 69469  53.1589 245.6905 0001029  69.4616 264.0278 15.80275384  3164
STARLINK-37686          
1 69470U 26127AD  26171.41668980 -.00101155  00000+0 -51377-3 0  9993
2 69470  53.1588 245.6660 0001019  82.0539 263.4920 15.80923507  3161
STARLINK-37451          
1 69471U 26127AE  26171.41668980 -.00081197  00000+0 -41098-3 0  9996
2 69471  53.1590 245.6424 0000705  71.7631 285.2106 15.80912422  3164
TJS-25                  
1 69474U 26129A   26162.48255804  .00007407  00000+0  19774-2 0  9990
2 69474  16.5302  30.5351 7751889 199.9639  91.9387  1.72502163    78
STARLINK-37816          
1 69478U 26131A   26171.41668980 -.01024692  31044-3 -33574-2 0  9991
2 69478  97.2830 191.8491 0001084  92.3575 191.0838 15.90573157  2535
STARLINK-37878          
1 69479U 26131B   26171.41668980 -.01241834  44517-3 -39925-2 0  9996
2 69479  97.2831 191.8502 0000877  80.9532 204.9465 15.90977983  1416
STARLINK-37817          
1 69480U 26131C   26171.41668980 -.01107058  35923-3 -35846-2 0  9996
2 69480  97.2831 191.8513 0001023 112.1025 177.2739 15.90818307  2533
STARLINK-37727          
1 69481U 26131D   26171.41668980 -.01048195  32480-3 -33817-2 0  9994
2 69481  97.2828 191.8528 0001027  94.0153 198.5228 15.90881927  2537
STARLINK-37814          
1 69482U 26131E   26171.41668980 -.01047451  32469-3 -33621-2 0  9999
2 69482  97.2831 191.8540 0001008  92.5067 202.8363 15.90982491  2539
STARLINK-37869          
1 69483U 26131F   26171.41668980 -.01066024  33581-3 -34044-2 0  9993
2 69483  97.2832 191.8552 0001022  94.4539 204.2131 15.91084905  2538
STARLINK-37873          
1 69484U 26131G   26171.41668980 -.01071592  33942-3 -34045-2 0  9992
2 69484  97.2833 191.8564 0001020  93.8966 207.6860 15.91187239  2538
STARLINK-37892          
1 69485U 26131H   26171.41668980 -.01072522  34034-3 -33885-2 0  9991
2 69485  97.2832 191.8575 0001024  93.6787 210.1613 15.91296866  2535
STARLINK-37893          
1 69486U 26131J   26171.41668980 -.01079893  34505-3 -33941-2 0  9996
2 69486  97.2834 191.8587 0000992  88.2123 218.6179 15.91400170  2612
